     3.04           N: GNSS NAV DATA    M: MIXED NAV DATA   RINEX VERSION / TYPE
NetR9 5.54          Receiver Operator   20230214 102358 UTC PGM / RUN BY / DATE
GPSA    .2608D-07   .7451D-08  -.1192D-06   .1192D-06       IONOSPHERIC CORR
GPSB    .1393D+06  -.8192D+05   .6554D+05  -.4588D+06       IONOSPHERIC CORR
GAL     .1680D+03  -.1602D+00   .2045D-02   .0000D+00       IONOSPHERIC CORR
QZSA    .2794D-07  -.2235D-07  -.3576D-06  -.1192D-06       IONOSPHERIC CORR
QZSB    .1147D+06  -.8192D+05   .6554D+05  -.1376D+07       IONOSPHERIC CORR
BDSA    .3446D-07   .3278D-06  -.2444D-05   .3517D-05       IONOSPHERIC CORR
BDSB    .1495D+06  -.4915D+06   .1901D+07  -.6554D+06       IONOSPHERIC CORR
GPUT   .3725290298D-08  .976996262D-14 405504 2249          TIME SYSTEM CORR
GLUT  -.1862645149D-08  .000000000D+00 209718 2249          TIME SYSTEM CORR
GAUT  -.9313225746D-09  .000000000D+00 172800 2249          TIME SYSTEM CORR
BDUT  -.1862645149D-08 -.195399252D-13     14  893          TIME SYSTEM CORR
QZUT   .4656612873D-08  .000000000D+00 442368 2249          TIME SYSTEM CORR
GAGP   .4336470738D-08 -.444089210D-14 172800 2249          TIME SYSTEM CORR
    18    18  2185     7                                    LEAP SECONDS
                                                            END OF HEADER
E 1 2023 02 14 10 20 00 -.600528263021D-03 -.156319401867D-12  .000000000000D+00
      .940000000000D+02  .979375000000D+02  .292655047400D-08  .229032351984D+01
      .450015068054D-05  .291731790639D-03  .919401645660D-05  .544060994911D+04
      .210000000000D+06  .204890966415D-07  .198157789372D+01 -.186264514923D-08
      .970379697009D+00  .146343750000D+03  .562037863430D+00 -.546379901773D-08
     -.287511976028D-09  .516000000000D+03  .224900000000D+04
      .312000000000D+01  .000000000000D+00  .232830643654D-09  .232830643654D-09
      .210664000000D+06
E26 2023 02 14 10 20 00  .180705683306D-04  .112123643703D-10  .000000000000D+00
      .940000000000D+02 -.722187500000D+02  .270511267880D-08  .274589025959D+01
     -.349059700966D-05  .250508426689D-03  .275671482086D-05  .544060627747D+04
      .210000000000D+06  .596046447754D-07 -.221590714614D+01 -.465661287308D-07
      .992368160346D+00  .294906250000D+03 -.125510952597D+01 -.561451958156D-08
      .428589281035D-11  .516000000000D+03  .224900000000D+04
      .312000000000D+01  .000000000000D+00 -.419095158577D-08 -.465661287308D-08
      .210664000000D+06
E21 2023 02 14 10 20 00 -.512089871336D-03 -.220268248086D-11  .000000000000D+00
      .940000000000D+02  .105937500000D+03  .292119310799D-08  .279759227879D+01
      .501237809658D-05  .277955783531D-03  .940822064877D-05  .544061922073D+04
      .210000000000D+06  .130385160446D-07  .197856662608D+01  .521540641785D-07
      .969967888496D+00  .142125000000D+03  .777392793325D+00 -.544415534235D-08
     -.256439253153D-09  .516000000000D+03  .224900000000D+04
      .312000000000D+01  .000000000000D+00  .279396772385D-08  .279396772385D-08
      .210664000000D+06
E31 2023 02 14 10 20 00 -.516001193319D-03 -.103739239421D-11  .000000000000D+00
      .940000000000D+02  .989062500000D+02  .278547316900D-08  .207624425744D+01
      .454671680927D-05  .212051905692D-03  .872462987900D-05  .544062193108D+04
      .210000000000D+06  .316649675369D-07  .197850922849D+01 -.279396772385D-07
      .969944176057D+00  .160000000000D+03 -.633648717212D-01 -.540022494104D-08
     -.308584282345D-09  .516000000000D+03  .224900000000D+04
      .312000000000D+01  .000000000000D+00  .372529029846D-08  .442378222942D-08
      .210664000000D+06
E26 2023 02 14 10 20 00  .180705683306D-04  .112123643703D-10  .000000000000D+00
      .940000000000D+02 -.722187500000D+02  .270511267880D-08  .274589025959D+01
     -.349059700966D-05  .250508426689D-03  .275671482086D-05  .544060627747D+04
      .210000000000D+06  .596046447754D-07 -.221590714614D+01 -.465661287308D-07
      .992368160346D+00  .294906250000D+03 -.125510952597D+01 -.561451958156D-08
      .428589281035D-11  .513000000000D+03  .224900000000D+04
      .312000000000D+01  .000000000000D+00 -.419095158577D-08 -.465661287308D-08
      .210685000000D+06
E31 2023 02 14 10 20 00 -.516001193319D-03 -.103739239421D-11  .000000000000D+00
      .940000000000D+02  .989062500000D+02  .278547316900D-08  .207624425744D+01
      .454671680927D-05  .212051905692D-03  .872462987900D-05  .544062193108D+04
      .210000000000D+06  .316649675369D-07  .197850922849D+01 -.279396772385D-07
      .969944176057D+00  .160000000000D+03 -.633648717212D-01 -.540022494104D-08
     -.308584282345D-09  .513000000000D+03  .224900000000D+04
      .312000000000D+01  .000000000000D+00  .372529029846D-08  .442378222942D-08
      .210685000000D+06
E 1 2023 02 14 10 20 00 -.600528263021D-03 -.156319401867D-12  .000000000000D+00
      .940000000000D+02  .979375000000D+02  .292655047400D-08  .229032351984D+01
      .450015068054D-05  .291731790639D-03  .919401645660D-05  .544060994911D+04
      .210000000000D+06  .204890966415D-07  .198157789372D+01 -.186264514923D-08
      .970379697009D+00  .146343750000D+03  .562037863430D+00 -.546379901773D-08
     -.287511976028D-09  .513000000000D+03  .224900000000D+04
      .312000000000D+01  .000000000000D+00  .232830643654D-09  .232830643654D-09
      .210685000000D+06
E21 2023 02 14 10 20 00 -.512089871336D-03 -.220268248086D-11  .000000000000D+00
      .940000000000D+02  .105937500000D+03  .292119310799D-08  .279759227879D+01
      .501237809658D-05  .277955783531D-03  .940822064877D-05  .544061922073D+04
      .210000000000D+06  .130385160446D-07  .197856662608D+01  .521540641785D-07
      .969967888496D+00  .142125000000D+03  .777392793325D+00 -.544415534235D-08
     -.256439253153D-09  .513000000000D+03  .224900000000D+04
      .312000000000D+01  .000000000000D+00  .279396772385D-08  .279396772385D-08
      .210685000000D+06
E 1 2023 02 14 10 20 00 -.600527506322D-03 -.170530256582D-12  .000000000000D+00
      .940000000000D+02  .979375000000D+02  .292655047400D-08  .229032351984D+01
      .450015068054D-05  .291731790639D-03  .919401645660D-05  .544060994911D+04
      .210000000000D+06  .204890966415D-07  .198157789372D+01 -.186264514923D-08
      .970379697009D+00  .146343750000D+03  .562037863430D+00 -.546379901773D-08
     -.287511976028D-09  .258000000000D+03  .224900000000D+04
      .312000000000D+01  .000000000000D+00  .232830643654D-09  .000000000000D+00
      .210720000000D+06
E26 2023 02 14 10 20 00  .180719071068D-04  .112123643703D-10  .000000000000D+00
      .940000000000D+02 -.722187500000D+02  .270511267880D-08  .274589025959D+01
     -.349059700966D-05  .250508426689D-03  .275671482086D-05  .544060627747D+04
      .210000000000D+06  .596046447754D-07 -.221590714614D+01 -.465661287308D-07
      .992368160346D+00  .294906250000D+03 -.125510952597D+01 -.561451958156D-08
      .428589281035D-11  .258000000000D+03  .224900000000D+04
      .312000000000D+01  .000000000000D+00 -.419095158577D-08  .000000000000D+00
      .210720000000D+06
E31 2023 02 14 10 20 00 -.516000960488D-03 -.103739239421D-11  .000000000000D+00
      .940000000000D+02  .989062500000D+02  .278547316900D-08  .207624425744D+01
      .454671680927D-05  .212051905692D-03  .872462987900D-05  .544062193108D+04
      .210000000000D+06  .316649675369D-07  .197850922849D+01 -.279396772385D-07
      .969944176057D+00  .160000000000D+03 -.633648717212D-01 -.540022494104D-08
     -.308584282345D-09  .258000000000D+03  .224900000000D+04
      .312000000000D+01  .000000000000D+00  .372529029846D-08  .000000000000D+00
      .210720000000D+06
E21 2023 02 14 10 20 00 -.512089231052D-03 -.220268248086D-11  .000000000000D+00
      .940000000000D+02  .105937500000D+03  .292119310799D-08  .279759227879D+01
      .501237809658D-05  .277955783531D-03  .940822064877D-05  .544061922073D+04
      .210000000000D+06  .130385160446D-07  .197856662608D+01  .521540641785D-07
      .969967888496D+00  .142125000000D+03  .777392793325D+00 -.544415534235D-08
     -.256439253153D-09  .258000000000D+03  .224900000000D+04
      .312000000000D+01  .000000000000D+00  .279396772385D-08  .000000000000D+00
      .210720000000D+06
